LEMUR-2-MIRIWARI        
1 51054U 22002BY  23354.16428037  .00037816  00000+0  10183-2 0  9998
2 51054  97.4162  61.4519 0004151 310.2697  49.8184 15.37742890107199
LEMUR-2-DJIRANG         
1 51058U 22002CC  23353.70967474  .00048047  00000+0  12920-2 0  9993
2 51058  97.4131  60.7839 0004144 308.6382  51.4492 15.37730960107129
LEMUR-2-TENNYSONLILY    
1 52732U 22057A   23354.31358545  .00167578  00000+0  23843-2 0  9991
2 52732  97.5652 118.0811 0002000  41.7085 318.4322 15.55774764 87382
LEMUR-2-VANDENDRIES     
1 52733U 22057B   23354.32765177  .00076031  00000+0  19539-2 0  9996
2 52733  97.5432 113.5594 0003408  77.0244 283.1382 15.38999450 87161
LEMUR-2-KAREN B         
1 52736U 22057E   23354.31384661  .00245306  00000+0  25309-2 0  9998
2 52736  97.5487 118.2802 0002026 336.6572  23.4594 15.64003268 87466
LEMUR-2-HANCOM-1        
1 52740U 22057J   23354.28856297  .00056717  00000+0  15477-2 0  9999
2 52740  97.5643 115.0388 0006854  65.3765 294.8192 15.37217447 87163
LEMUR-2-MIMI1307        
1 52769U 22057AP  23354.32636928  .00069002  00000+0  17667-2 0  9996
2 52769  97.5641 115.3570 0006388  33.1412 327.0232 15.39131227 87192
LEMUR-2-PHILARI         
1 55013U 23001E   23353.60877233  .00045118  00000+0  14531-2 0  9996
2 55013  97.4514  52.7010 0007824  83.1512 277.0619 15.32033504 53334
LEMUR-2-DISCLAIMER      
1 55014U 23001F   23354.15672099  .00039796  00000+0  13357-2 0  9991
2 55014  97.4562  53.2362 0008739  85.8176 274.4064 15.30724286 53400
LEMUR-2-STEVEALBERS     
1 55017U 23001J   23353.72653997  .00028374  00000+0  99744-3 0  9997
2 55017  97.4502  52.3227 0008383  86.7344 273.4854 15.29295635 53325
LEMUR-2-EMMACULATE      
1 55037U 23001AE  23353.17990556  .00058041  00000+0  16153-2 0  9999
2 55037  97.4569  53.8327 0010869  73.0389 287.2045 15.36562949 53358
LEMUR-2-MMOLO           
1 55038U 23001AF  23353.17841817  .00013674  00000+0  49124-3 0  9993
2 55038  97.4592  53.4546 0014054  77.1459 283.1350 15.28681687 53320
LEMUR-2-FUENTETAJA-01   
1 55088U 23001CH  23353.69125736  .00022201  00000+0  72487-3 0  9994
2 55088  97.4604  53.5847 0012361  70.2994 289.9580 15.31702632 53373
LEMUR-2-ONREFLECTION    
1 56182U 23054E   23354.25373007  .00035045  00000+0  11545-2 0  9994
2 56182  97.3764 247.0604 0009154  91.5419 268.6871 15.31351941 38564
LEMUR-2-SPACEGUS        
1 56187U 23054K   23354.17306285  .00020966  00000+0  68376-3 0  9995
2 56187  97.3781 247.1910 0009479  77.3590 282.8711 15.31779884 38562
LEMUR-2-ROMEO-N-LEO     
1 56206U 23054AE  23354.24546243  .00088603  00000+0  17071-2 0  9992
2 56206  97.3699 249.4192 0010481  60.7004 299.5292 15.47491752 38729
LEMUR-2-EMBRIONOVIS     
1 56970U 23084AQ  23353.79690231  .00008700  00000+0  45535-3 0  9996
2 56970  97.5331 108.3945 0013809 278.8047  81.1622 15.15993178 28755
LEMUR-2-NAZIYAH         
1 56974U 23084AU  23353.88715318  .00024422  00000+0  11151-2 0  9999
2 56974  97.5210 108.7859 0013023 268.9023  91.0720 15.20511590 28800
LEMUR-2-AADAM-ALIYAH    
1 56977U 23084AX  23353.81999720  .00024249  00000+0  11075-2 0  9998
2 56977  97.5231 108.7731 0013432 270.5445  89.4251 15.20499451 28795
LEMUR-2-MANO            
1 57390U 23100E   23353.44154314  .00011763  00000+0  92251-3 0  9991
2 57390  99.4907 151.9664 0015334 152.0583 208.1462 15.01086013 23133
LEMUR-2-DEVERILL-M-T    
1 57391U 23100F   23353.40425986  .00011713  00000+0  91387-3 0  9998
2 57391  99.4644 151.8973 0012783 155.6148 204.5678 15.01312368 23139
LEMUR-2-BASS            
1 58259U 23174D   23353.17847448  .00009436  00000+0  52388-3 0  9995
2 58259  97.4746  65.4218 0013317 150.6347 209.5636 15.13870463  6268
LEMUR-2-DILIGHTFUL      
1 58260U 23174E   23353.76873508  .00016360  00000+0  89400-3 0  9997
2 58260  97.4811  66.0430 0012958 150.4117 209.7850 15.14305062  6358
LEMUR-2-GOOD-VIBES      
1 58263U 23174H   23354.16599472  .00013898  00000+0  76168-3 0  9990
2 58263  97.4757  66.4056 0012206 150.8711 209.3204 15.14244874  6417
LEMUR-2-SANITA-VETRA    
1 58267U 23174M   23353.43511418  .00020114  00000+0  10935-2 0  9995
2 58267  97.4737  65.6867 0011707 151.3096 208.8782 15.14455443  6306
LEMUR-2-MARAPAMASM      
1 58332U 23174CE  23353.52264326  .00021063  00000+0  10827-2 0  9995
2 58332  97.4730  65.8692 0011518 115.8690 244.3732 15.16432145  6323
LEMUR-2-THE-CLEANER     
1 58333U 23174CF  23354.18583416  .00016100  00000+0  83527-3 0  9997
2 58333  97.4737  66.5187 0011332 111.1448 249.0997 15.16166355  6425
LEMUR-2-MANGO2A         
1 58335U 23174CH  23354.17493902  .00023450  00000+0  11870-2 0  9995
2 58335  97.4747  66.5414 0011259 117.3405 242.8976 15.16953900  6428
LEMUR-2-JK0903EM1407    
1 58336U 23174CJ  23354.19007630  .00008978  00000+0  47345-3 0  9992
2 58336  97.4738  66.5155 0011319 111.0667 249.1777 15.15739609  6425
LEMUR-2-MANGO2B         
1 58337U 23174CK  23354.43805513  .00031037  00000+0  15665-2 0  9997
2 58337  97.4804  66.8307 0012195 116.6755 243.5729 15.16985909  6460
